ONEWEB-0363             
1 49289U 21090L   25041.20003976 -.00000022  00000+0 -85135-4 0  9994
2 49289  87.9284  12.3277 0001446  76.9847 283.1447 13.20771807166198
ONEWEB-0364             
1 49290U 21090M   25041.16214804  .00000055  00000+0  10224-3 0  9995
2 49290  87.9286  12.3636 0001696  85.6888 274.4439 13.20771340167311
ONEWEB-0365             
1 49291U 21090N   25041.05991054  .00000004  00000+0 -21638-4 0  9990
2 49291  87.9148  42.7768 0001952  91.4768 268.6589 13.19724472162801
ONEWEB-0366             
1 49292U 21090P   25041.18218976  .00000222  00000+0  56374-3 0  9995
2 49292  87.9012  27.5402 0001738  86.7938 273.3390 13.14502729164221
ONEWEB-0367             
1 49293U 21090Q   25041.19845536  .00000024  00000+0  26404-4 0  9997
2 49293  87.9285  12.3230 0001909  86.6835 273.4517 13.20770408166187
ONEWEB-0368             
1 49294U 21090R   25041.47465567  .00000139  00000+0  30921-3 0  9996
2 49294  87.9285  12.3002 0001431 110.9614 249.1672 13.20770826167379
ONEWEB-0369             
1 49295U 21090S   25041.51007174  .00000089  00000+0  18903-3 0  9998
2 49295  87.9156  42.7063 0001887  91.8445 268.2904 13.19724461162855
ONEWEB-0370             
1 49296U 21090T   25041.20794428 -.00000035  00000+0 -11764-3 0  9991
2 49296  87.9285  12.3261 0002145  78.0644 282.0729 13.20772645166221
